IRIDIUM 7               
1 24793U 97020B   25337.85269994  .00000827  00000+0  27750-3 0  9995
2 24793  86.3949 105.8241 0001669  91.3051 268.8337 14.36093480496248
IRIDIUM 5               
1 24795U 97020D   25337.62847652  .00008079  00000+0  63921-3 0  9992
2 24795  86.3889   5.4814 0102313 248.8143 110.2132 14.96367243510789
IRIDIUM 4               
1 24796U 97020E   25337.86899181  .00000809  00000+0  26645-3 0  9998
2 24796  86.3946 102.5801 0001932  90.6161 269.5257 14.36998346496830
IRIDIUM 914             
1 24836U 97030A   25337.88253942  .00000956  00000+0  29130-3 0  9990
2 24836  86.3926 110.6778 0002889  60.8770 299.2719 14.41053551631563
IRIDIUM 16              
1 24841U 97030F   25337.95883799  .00000971  00000+0  30932-3 0  9992
2 24841  86.4028 134.0060 0001500 164.3786 195.7459 14.38873252491416
IRIDIUM 911             
1 24842U 97030G   25337.93811250  .00001282  00000+0  34061-3 0  9997
2 24842  86.4451 132.5980 0012224 248.7196 111.2702 14.47874170499645
IRIDIUM 17              
1 24870U 97034B   25337.90999986  .00000836  00000+0  26992-3 0  9990
2 24870  86.3972 163.4476 0002602 127.8425 232.3008 14.38010855487976
IRIDIUM 920             
1 24871U 97034C   25337.93342168  .00000954  00000+0  28648-3 0  9999
2 24871  86.3974 142.2860 0009781 236.1327 123.8943 14.41714241491039
